*******************************************************************************
 Revised: Sep 10, 2019            Belinda / (Uranus)                        714

 SATELLITE PHYSICAL PROPERTIES:
  Radius (km)           = 34 +- 4           Density (g cm^-3)   =
  Mass (10^20 kg )      =                   Geometric Albedo    =   0.07 
                                            V(1,0)              =  +9.4

 SATELLITE ORBITAL DATA:
  Semi-major axis, a (km) =  75.255 (10^3)  Orbital period      =  0.623525 d
  Eccentricity, e         =   0.000         Rotational period   = 
  Inclination, i  (deg)   =   0.0
*******************************************************************************
 
 
*******************************************************************************
Ephemeris / WWW_USER Fri Jun 19 18:50:18 2020 Pasadena, USA      / Horizons
*******************************************************************************
Target body name: Belinda (714)                   {source: ura115}
Center body name: Solar System Barycenter (0)     {source: DE431mx}
Center-site name: BODY CENTER
*******************************************************************************
Start time      : A.D. 1982-Jan-31 00:00:00.0000 TDB
Stop  time      : A.D. 2052-Mar-04 00:00:00.0000 TDB
Step-size       : 7200 minutes
*******************************************************************************
Center geodetic : 0.00000000,0.00000000,0.0000000 {E-lon(deg),Lat(deg),Alt(km)}
Center cylindric: 0.00000000,0.00000000,0.0000000 {E-lon(deg),Dxy(km),Dz(km)}
Center radii    : (undefined)                                                  
Output units    : AU-D
Output type     : GEOMETRIC cartesian states
Output format   : 2 (position and velocity)
Reference frame : Ecliptic of J2000.0
*******************************************************************************
            JDTDB,            Calendar Date (TDB),        delta-T,                      X,                      Y,                      Z,                     VX,                     VY,                     VZ,
******************************************************************************************************************************************************************************************************************
$$SOE
2456700.500000000, A.D. 2014-Feb-12 00:00:00.0000,      67.185050,  1.961224301894342E+01,  4.074436943162102E+00, -2.386686993238642E-01,  1.806650418180998E-03,  2.510221287674155E-03, -4.147889504066125E-03,
2456705.500000000, A.D. 2014-Feb-17 00:00:00.0000,      67.185154,  1.960811777019833E+01,  4.092759591122522E+00, -2.385980142547678E-01,  1.287615693568615E-03,  2.580349327380600E-03, -4.449484233589920E-03,
2456710.500000000, A.D. 2014-Feb-22 00:00:00.0000,      67.185250,  1.960396864606226E+01,  4.111079348393050E+00, -2.385299362623354E-01,  7.388504475251835E-04,  2.665715844406356E-03, -4.688382898438387E-03,
2456715.500000000, A.D. 2014-Feb-27 00:00:00.0000,      67.185339,  1.959979482799127E+01,  4.129396422672759E+00, -2.384641319802171E-01,  1.679889019727532E-04,  2.765176105138210E-03, -4.860809930546195E-03,
2456720.500000000, A.D. 2014-Mar-04 00:00:00.0000,      67.185418,  1.959559591253511E+01,  4.147710960737361E+00, -2.384000605523923E-01, -4.172788006886662E-04,  2.877373119758219E-03, -4.964417269076461E-03,
2456725.500000000, A.D. 2014-Mar-09 00:00:00.0000,      67.185485,  1.959137244861565E+01,  4.166023089709406E+00, -2.383358488063716E-01, -1.008121764618551E-03,  3.000537237677519E-03, -4.998029154227047E-03,
2456730.500000000, A.D. 2014-Mar-14 00:00:00.0000,      67.185540,  1.958712377894443E+01,  4.184332825213640E+00, -2.382722772556854E-01, -1.597240312687067E-03,  3.133188180431926E-03, -4.960782070450387E-03,
2456735.500000000, A.D. 2014-Mar-19 00:00:00.0000,      67.185582,  1.958285022050690E+01,  4.202640401086245E+00, -2.382070662673890E-01, -2.175548485192029E-03,  3.273235508205567E-03, -4.853409007431609E-03,
2456740.500000000, A.D. 2014-Mar-24 00:00:00.0000,      67.185613,  1.957855196146181E+01,  4.220945791780625E+00, -2.381399881196242E-01, -2.735255540667297E-03,  3.418785408535660E-03, -4.677232910455504E-03,
2456745.500000000, A.D. 2014-Mar-29 00:00:00.0000,      67.185634,  1.957422936157247E+01,  4.239248951626587E+00, -2.380706702648024E-01, -3.268766127013310E-03,  3.567784977537451E-03, -4.435054425530141E-03,
2456750.500000000, A.D. 2014-Apr-03 00:00:00.0000,      67.185644,  1.956988239260945E+01,  4.257550145837339E+00, -2.379971586899911E-01, -3.767987528284420E-03,  3.718039849705730E-03, -4.129887339865844E-03,
2456755.500000000, A.D. 2014-Apr-08 00:00:00.0000,      67.185640,  1.956551223459381E+01,  4.275848989823904E+00, -2.379202268172630E-01, -4.226848605070829E-03,  3.867558084572401E-03, -3.766472668892248E-03,
2456760.500000000, A.D. 2014-Apr-13 00:00:00.0000,      67.185623,  1.956111853089996E+01,  4.294145792164875E+00, -2.378380999999671E-01, -4.638151602907739E-03,  4.014118620662322E-03, -3.349430640585947E-03,
2456765.500000000, A.D. 2014-Apr-18 00:00:00.0000,      67.185594,  1.955670232274115E+01,  4.312440348645866E+00, -2.377505054448323E-01, -4.996480014762382E-03,  4.155692780948112E-03, -2.884795591564205E-03,
2456770.500000000, A.D. 2014-Apr-23 00:00:00.0000,      67.185553,  1.955226471042691E+01,  4.330732432653871E+00, -2.376572006586737E-01, -5.296832207416828E-03,  4.290214675122366E-03, -2.379519704396378E-03,
2456775.500000000, A.D. 2014-Apr-28 00:00:00.0000,      67.185503,  1.954780517578648E+01,  4.349022267941283E+00, -2.375572897707221E-01, -5.534912768210203E-03,  4.415863630124908E-03, -1.839914921338639E-03,
2456780.500000000, A.D. 2014-May-03 00:00:00.0000,      67.185443,  1.954332605149104E+01,  4.367309328315955E+00, -2.374507635254453E-01, -5.707635936273146E-03,  4.530776105601360E-03, -1.274494299944480E-03,
2456785.500000000, A.D. 2014-May-08 00:00:00.0000,      67.185371,  1.953882677042349E+01,  4.385593766132080E+00, -2.373372894593325E-01, -5.812402445373883E-03,  4.633389966108867E-03, -6.903732241697280E-04,
2456790.500000000, A.D. 2014-May-13 00:00:00.0000,      67.185288,  1.953430865962357E+01,  4.403875315747057E+00, -2.372165810842369E-01, -5.847882630135135E-03,  4.722217052960871E-03, -9.615559614412613E-05,
2456795.500000000, A.D. 2014-May-18 00:00:00.0000,      67.185195,  1.952977311968114E+01,  4.422153681492000E+00, -2.370884367445727E-01, -5.813392909589972E-03,  4.795896863930713E-03,  4.994918555699997E-04,
2456800.500000000, A.D. 2014-May-23 00:00:00.0000,      67.185095,  1.952521971766069E+01,  4.440428841437776E+00, -2.369535653279108E-01, -5.709978671440180E-03,  4.853587603192491E-03,  1.088856571922669E-03,
2456805.500000000, A.D. 2014-May-28 00:00:00.0000,      67.184989,  1.952065056571071E+01,  4.458700442878501E+00, -2.368110763625917E-01, -5.538578018833160E-03,  4.894237756017725E-03,  1.662930407675252E-03,
2456810.500000000, A.D. 2014-Jun-02 00:00:00.0000,      67.184876,  1.951606554679519E+01,  4.476968333379418E+00, -2.366621139527811E-01, -5.302042376970736E-03,  4.917434204579277E-03,  2.214245324134224E-03,
2456815.500000000, A.D. 2014-Jun-07 00:00:00.0000,      67.184756,  1.951146566883327E+01,  4.495232284606940E+00, -2.365066133253123E-01, -5.003616343851564E-03,  4.922759652394080E-03,  2.734694032559366E-03,
2456820.500000000, A.D. 2014-Jun-12 00:00:00.0000,      67.184629,  1.950685195993441E+01,  4.513492076829239E+00, -2.363444338459668E-01, -4.647195064031339E-03,  4.910041468379764E-03,  3.216898051910164E-03,
2456825.500000000, A.D. 2014-Jun-17 00:00:00.0000,      67.184497,  1.950222466363897E+01,  4.531747368045356E+00, -2.361775015442055E-01, -4.238724215643661E-03,  4.879657306012650E-03,  3.654201115687540E-03,
2456830.500000000, A.D. 2014-Jun-22 00:00:00.0000,      67.184363,  1.949758448679682E+01,  4.549998144895022E+00, -2.360047066087576E-01, -3.783043281460356E-03,  4.831808171197410E-03,  4.040412343085104E-03,
2456835.500000000, A.D. 2014-Jun-27 00:00:00.0000,      67.184228,  1.949293204518167E+01,  4.568243999677089E+00, -2.358278792708067E-01, -3.287268211214274E-03,  4.767306763245356E-03,  4.370154400455341E-03,
2456840.500000000, A.D. 2014-Jul-02 00:00:00.0000,      67.184091,  1.948826772111764E+01,  4.586484780512532E+00, -2.356473823397781E-01, -2.758194178718380E-03,  4.686969425076450E-03,  4.638576559443368E-03,
2456845.500000000, A.D. 2014-Jul-07 00:00:00.0000,      67.183953,  1.948359162617752E+01,  4.604720431881557E+00, -2.354633422056681E-01, -2.203053803223736E-03,  4.591899987967045E-03,  4.842191208019693E-03,
2456850.500000000, A.D. 2014-Jul-12 00:00:00.0000,      67.183814,  1.947890478926609E+01,  4.622950425332568E+00, -2.352777985830549E-01, -1.630456830721725E-03,  4.483511946002437E-03,  4.977595470938093E-03,
2456855.500000000, A.D. 2014-Jul-17 00:00:00.0000,      67.183676,  1.947420620992410E+01,  4.641175018628116E+00, -2.350903646863763E-01, -1.047755262940639E-03,  4.363257307001763E-03,  5.043600285616123E-03,
2456860.500000000, A.D. 2014-Jul-22 00:00:00.0000,      67.183541,  1.946949691349166E+01,  4.659393767590015E+00, -2.349025084295075E-01, -4.636868376691209E-04,  4.232854347353602E-03,  5.038788991768285E-03,
2456865.500000000, A.D. 2014-Jul-27 00:00:00.0000,      67.183411,  1.946477668535003E+01,  4.677606599413605E+00, -2.347149586558830E-01,  1.137255238305503E-04,  4.094069924076168E-03,  4.963188747879536E-03,
2456870.500000000, A.D. 2014-Aug-01 00:00:00.0000,      67.183286,  1.946004468226857E+01,  4.695813595231034E+00, -2.345283571915121E-01,  6.761972712319388E-04,  3.948938306111597E-03,  4.818350678218354E-03,
2456875.500000000, A.D. 2014-Aug-06 00:00:00.0000,      67.183164,  1.945530213708660E+01,  4.714014329075995E+00, -2.343437085656726E-01,  1.215670912480565E-03,  3.799390269692754E-03,  4.605442942119534E-03,
